OBJECT_NAME,OBJECT_ID,EPOCH,MEAN_MOTION,ECCENTRICITY,INCLINATION,RA_OF_ASC_NODE,ARG_OF_PERICENTER,MEAN_ANOMALY,EPHEMERIS_TYPE,CLASSIFICATION_TYPE,NORAD_CAT_ID,ELEMENT_SET_NO,REV_AT_EPOCH,BSTAR,MEAN_MOTION_DOT,MEAN_MOTION_DDOT
GSAT0216 (GALILEO 20),2017-079B,2026-06-30T19:09:15.256800,1.70474719,.00046863,55.0708,221.1319,276.4690,83.5705,0,U,43056,999,5323,0,.74E-6,0
GSAT0217 (GALILEO 21),2017-079C,2026-07-01T00:27:12.213504,1.70474451,.00048591,55.0679,221.1236,286.9654,73.0732,0,U,43057,999,5322,0,.74E-6,0
GSAT0218 (GALILEO 22),2017-079D,2026-06-30T01:34:46.177536,1.70474397,.00061659,55.0690,221.1474,274.7055,85.3194,0,U,43058,999,5323,0,.73E-6,0
BEIDOU-3 M7 (C27),2018-003A,2026-07-01T20:21:47.998944,1.86228473,.00045738,54.3138,301.8035,96.5206,263.5465,0,U,43107,999,5762,0,-.64E-6,0
BEIDOU-3 M8 (C28),2018-003B,2026-06-30T17:15:30.902688,1.86231192,.00028906,54.3075,301.8252,258.4247,101.5527,0,U,43108,999,5761,0,-.7E-6,0
BEIDOU-3 M4 (C22),2018-018A,2026-06-30T02:07:08.825376,1.86231543,.0007448,56.6620,62.7232,23.9137,336.1827,0,U,43207,999,5698,0,-.5E-6,0
BEIDOU-3 M3 (C21),2018-018B,2026-07-01T05:29:19.451904,1.86231442,.00080903,56.6627,62.6896,343.0276,17.0116,0,U,43208,999,5700,0,-.42E-6,0
BEIDOU-3 M9 (C29),2018-029A,2026-07-01T10:43:05.602368,1.86228720,.00009873,54.1800,299.4501,173.6524,186.3658,0,U,43245,999,5616,0,-.63E-6,0
BEIDOU-3 M10 (C30),2018-029B,2026-07-01T09:08:27.870432,1.86229617,.00036167,54.1777,299.4786,39.0295,321.0130,0,U,43246,999,5614,0,-.63E-6,0
IRNSS-1I,2018-035A,2026-06-28T19:05:38.535360,1.00277388,.0017671,28.7805,74.0157,182.6115,1.5908,0,U,43286,999,3019,0,.66E-6,0
COSMOS 2527 (756),2018-053A,2026-07-01T03:54:06.326208,2.13102194,.0006718,65.5849,73.4409,234.8193,125.1797,0,U,43508,999,6257,0,-.14E-6,0
BEIDOU-2 IGSO-7 (C16),2018-057A,2026-07-01T21:23:21.693984,1.00246939,.01049468,55.1981,162.9292,237.8611,308.6338,0,U,43539,999,2927,0,-.33E-6,0
GSAT0221 (GALILEO 25),2018-060A,2026-07-01T03:25:52.946688,1.70476287,.0002519,57.1648,341.4040,293.8914,66.0735,0,U,43564,999,4940,0,-.82E-6,0
GSAT0222 (GALILEO 26),2018-060B,2026-07-01T08:42:12.934944,1.70476063,.00023358,57.1683,341.4018,239.2507,120.7178,0,U,43565,999,4945,0,-.81E-6,0
GSAT0219 (GALILEO 23),2018-060C,2026-06-30T23:55:35.692032,1.70476218,.00017686,57.1678,341.4132,309.8644,50.1112,0,U,43566,999,4942,0,-.83E-6,0
GSAT0220 (GALILEO 24),2018-060D,2026-06-30T01:04:28.014816,1.70476251,.00019148,57.1670,341.4391,299.6424,60.3296,0,U,43567,999,4939,0,-.86E-6,0
BEIDOU-3 M5 (C23),2018-062A,2026-06-30T12:44:34.118880,1.86228822,.0005701,54.0866,181.8503,291.2634,68.6860,0,U,43581,999,5388,0,.69E-6,0
BEIDOU-3 M6 (C24),2018-062B,2026-06-30T22:21:16.377120,1.86227996,.0005166,54.0861,181.8260,9.1452,350.8724,0,U,43582,999,5389,0,.69E-6,0
BEIDOU-3 M12 (C26),2018-067A,2026-06-30T07:59:23.000640,1.86227822,.00078824,54.1812,180.5941,29.9237,330.1298,0,U,43602,999,5336,0,.68E-6,0
BEIDOU-3 M11 (C25),2018-067B,2026-06-30T11:13:55.613856,1.86227290,.0004606,54.1785,180.5532,13.1016,346.9180,0,U,43603,999,5339,0,.68E-6,0
BEIDOU-3 M13 (C32),2018-072A,2026-07-01T11:55:17.103936,1.86231553,.00066785,56.6370,62.1870,331.8452,28.1862,0,U,43622,999,5292,0,-.41E-6,0
BEIDOU-3 M14 (C33),2018-072B,2026-06-30T06:55:04.226304,1.86231462,.00058641,56.6378,62.2212,5.3649,354.7045,0,U,43623,999,5289,0,-.49E-6,0
BEIDOU-3 M16 (C35),2018-078A,2026-06-30T10:38:26.690208,1.86232447,.00068914,54.0771,299.5213,40.4774,319.5856,0,U,43647,999,5240,0,-.69E-6,0
BEIDOU-3 M15 (C34),2018-078B,2026-06-30T00:51:23.712768,1.86232575,.00038812,54.0730,299.5360,58.0730,301.9745,0,U,43648,999,5241,0,-.71E-6,0
BEIDOU-3 G1 (C59),2018-085A,2026-07-02T06:11:19.728672,1.00271044,.00085664,2.9051,96.9760,353.1792,82.8924,0,U,43683,999,2821,0,-.101E-5,0
COSMOS 2529 (757),2018-086A,2026-07-01T17:28:33.213216,2.13102156,.00121003,64.2961,192.1032,256.3305,103.5693,0,U,43687,999,5959,0,.8E-6,0
BEIDOU-3 M17 (C36),2018-093A,2026-06-30T17:30:46.323648,1.86228547,.00101661,54.1700,181.8368,292.9886,63.8528,0,U,43706,999,5178,0,.69E-6,0
BEIDOU-3 M18 (C37),2018-093B,2026-06-30T01:27:39.144672,1.86226728,.00080891,54.1707,181.8515,321.6301,38.3251,0,U,43707,999,5177,0,.7E-6,0
GPS BIII-1  (PRN 04),2018-109A,2026-07-01T23:42:02.331936,2.00562519,.00385484,55.6901,91.6032,197.5510,172.7213,0,U,43873,999,5537,0,-.14E-6,0
BEIDOU-3 IGSO-1 (C38),2019-023A,2026-06-30T23:56:38.611104,1.00288188,.00256822,58.7138,37.5078,224.2080,135.1816,0,U,44204,999,734,0,-.197E-5,0
BEIDOU-2 G8 (C01),2019-027A,2026-07-02T06:06:50.159808,1.00267390,.00096429,1.6947,74.5209,285.1777,156.7218,0,U,44231,999,2623,0,-.239E-5,0
